0 BREEZE-M DEB
1 38957U 12044CQ  13281.28462268  .00029623  23940-5  86204-3 0   715
2 38957 050.0387 022.4433 2514519 067.8454 316.8835 10.38727890 35991
0 BREEZE-M DEB
1 38957U 12044CQ  13283.30542202  .00038063  24518-5  11417-2 0   721
2 38957 050.0244 017.7969 2511443 071.5618 314.2714 10.38900538 36206
0 BREEZE-M DEB
1 38957U 12044CQ  13283.49778855  .00038623  24545-5  11371-2 0   738
2 38957 050.0433 017.3627 2512463 071.8487 313.7914 10.38918378 36222
0 BREEZE-M DEB
1 38957U 12044CQ  13283.69022705  .00066090  00000-0  18814-2 0   739
2 38957 050.0655 016.9393 2512800 072.3454 313.4766 10.38953701 36241
0 BREEZE-M DEB
1 38957U 12044CQ  13284.26749491  .00044308  24933-5  12834-2 0   742
2 38957 050.0419 015.6013 2512832 073.4665 312.6331 10.39005823 36305
0 BREEZE-M DEB
1 38957U 12044CQ  13285.22950099  .00043192  24908-5  12453-2 0   757
2 38957 050.0489 013.3959 2512753 075.2847 311.0633 10.39085792 36402
0 BREEZE-M DEB
1 38957U 12044CQ  13285.61429990  .00042046  24853-5  12114-2 0   762
2 38957 050.0448 012.5014 2512692 075.9815 310.5082 10.39113877 36446
0 BREEZE-M DEB
1 38957U 12044CQ  13286.28766200  .00036916  24591-5  10760-2 0   778
2 38957 050.0423 010.9570 2511987 077.3124 309.4139 10.39152528 36517
0 BREEZE-M DEB
1 38957U 12044CQ  13287.63429859  .00036265  24609-5  10555-2 0   784
2 38957 050.0426 007.8600 2511621 079.8697 307.3408 10.39250442 36651
0 BREEZE-M DEB
1 38957U 12044CQ  13289.26928946  .00039240  24829-5  11367-2 0   799
2 38957 050.0450 004.0986 2511100 083.0254 304.7611 10.39391533 36825
0 BREEZE-M DEB
1 38957U 12044CQ  13289.55776951  .00040507  24911-5  11690-2 0   809
2 38957 050.0442 003.4334 2511144 083.5505 304.2387 10.39419836 36853
0 BREEZE-M DEB
1 38957U 12044CQ  13290.42321920  .00042263  25045-5  12249-2 0   811
2 38957 050.0443 001.4476 2510435 085.1270 302.8650 10.39500911 36940
0 BREEZE-M DEB
1 38957U 12044CQ  13290.71170200  .00047933  00000-0  13642-2 0   823
2 38957 050.0615 000.7865 2510017 085.6801 302.4312 10.39521789 36976
0 BREEZE-M DEB
1 38957U 12044CQ  13292.25005598  .00041428  25026-5  11958-2 0   822
2 38957 050.0458 357.2528 2509956 088.5686 299.7648 10.39653410 37136
0 BREEZE-M DEB
1 38957U 12044CQ  13293.21145579  .00039763  24937-5  11487-2 0   830
2 38957 050.0445 355.0380 2509606 090.4130 298.1415 10.39725807 37238
0 BREEZE-M DEB
1 38957U 12044CQ  13294.55727388  .00038087  24849-5  11020-2 0   846
2 38957 050.0435 351.9409 2509085 092.9779 295.7717 10.39825434 37371
